63748,KUIPER-00035,2025,97.3,-1.0,+,51.9,Active,0,LEO,USA,USA,Unknown,Unknown,Unknown,1 63748U 25088AA  25300.53850340 -.00003038  00000+0 -36968-3 0  9999,2 63748  51.9045 342.9058 0005230 355.4573   4.6341 14.79897121 27799,14.79897121,0.000523,LEO
63749,KUIPER-00037,2025,97.3,-1.0,+,51.9,Active,0,LEO,USA,USA,Unknown,Unknown,Unknown,1 63749U 25088AB  25300.54011225  .00005466  00000+0  74453-3 0  9998,2 63749  51.9012 341.8497 0007646 303.5729  56.4503 14.79974897 28599,14.79974897,0.0007646,LEO
63750,KUIPER-00038,2025,97.44,-1.0,+,51.9,Active,0,LEO,USA,USA,Unknown,Unknown,Unknown,1 63750U 25088AC  25300.55874441  .00003548  00000+0  49227-3 0  9998,2 63750  51.9026 326.8011 0006499 358.7006   1.3939 14.80103917 27800,14.80103917,0.0006499,LEO
64500,KUIPER-00039,2025,97.31,-1.0,+,51.9,Active,0,LEO,USA,USA,Unknown,Unknown,Unknown,1 64500U 25134A   25300.19136859  .00004399  00000+0  60698-3 0  9998,2 64500  51.8990 103.4054 0011932 207.3409 152.6926 14.79814633 20309,14.79814633,0.0011932,LEO
64501,KUIPER-00040,2025,97.3,-1.0,+,51.9,Active,0,LEO,USA,USA,Unknown,Unknown,Unknown,1 64501U 25134B   25300.51649157 -.00000670  00000+0 -58097-4 0  9996,2 64501  51.8991 113.1309 0017978 186.7875 173.2846 14.79894531 20197,14.79894531,0.0017978,LEO
64502,KUIPER-00041,2025,97.31,-1.0,+,51.9,Active,0,LEO,USA,USA,Unknown,Unknown,Unknown,1 64502U 25134C   25300.51544008 -.00006196  00000+0 -78386-3 0  9997,2 64502  51.8996 114.4927 0014574 180.7545 179.3397 14.79865053 20173,14.79865053,0.0014574,LEO
64503,KUIPER-00042,2025,97.3,-1.0,+,51.9,Active,0,LEO,USA,USA,Unknown,Unknown,Unknown,1 64503U 25134D   25300.85678788 -.00000867  00000+0 -84230-4 0  9993,2 64503  51.9027 108.9832 0012844 187.6886 172.3881 14.79932103 20289,14.79932103,0.0012844,LEO
64504,KUIPER-00043,2025,97.3,-1.0,+,51.9,Active,0,LEO,USA,USA,Unknown,Unknown,Unknown,1 64504U 25134E   25300.18964537  .00001335  00000+0  20422-3 0  9991,2 64504  51.9004 104.3685 0003980 173.6027 186.4987 14.79933924 20290,14.79933924,0.000398,LEO
